NORAD_CAT_ID,OBJECT_NAME,OBJECT_TYPE,EPOCH,MEAN_MOTION,ECCENTRICITY,INCLINATION,RA_OF_ASC_NODE,ARG_OF_PERICENTER,MEAN_ANOMALY,BSTAR,MEAN_MOTION_DOT,MEAN_MOTION_DDOT,TLE_LINE0,TLE_LINE1,TLE_LINE2,SEMIMAJOR_AXIS,PERIOD,APOGEE,PERIGEE,DECAYED
55956.0,STARLINK-5883,PAYLOAD,2023-10-12 12:19:22,14.99306476,0.0002933,69.9975,321.0641,270.5355,89.5469,4.2839e-05,4.3e-06,0.0,0 STARLINK-5883,1 55956U 23037AU  23285.51345214  .00000430  00000-0  42839-4 0  9997,2 55956  69.9975 321.0641 0002933 270.5355  89.5469 14.99306476 32788,6947.175,96.044,571.077,567.002,0.0
55956.0,STARLINK-5883,PAYLOAD,2023-10-13 04:20:06,14.99294993,0.0002821,69.9976,319.379,272.5301,87.5535,8.2443e-05,9.15e-06,0.0,0 STARLINK-5883,1 55956U 23037AU  23286.18062633  .00000915  00000-0  82443-4 0  9995,2 55956  69.9976 319.3790 0002821 272.5301  87.5535 14.99294993 33225,6947.21,96.045,571.035,567.116,0.0
55956.0,STARLINK-5883,PAYLOAD,2023-10-13 12:20:27,14.99297489,0.0002789,69.9987,318.5371,272.5752,87.5088,8.3709e-05,9.3e-06,0.0,0 STARLINK-5883,1 55956U 23037AU  23286.51420939  .00000930  00000-0  83709-4 0  9992,2 55956  69.9987 318.5371 0002789 272.5752  87.5088 14.99297489 32939,6947.203,96.045,571.005,567.13,0.0
55956.0,STARLINK-5883,PAYLOAD,2023-10-14 04:21:10,14.99306669,0.0002866,69.9985,316.852,274.6202,85.463,1.5405e-05,9.5e-07,0.0,0 STARLINK-5883,1 55956U 23037AU  23287.18137262  .00000095  00000-0  15405-4 0  9990,2 55956  69.9985 316.8520 0002866 274.6202  85.4630 14.99306669 33373,6947.174,96.044,571.03,567.048,0.0
55956.0,STARLINK-5883,PAYLOAD,2023-10-14 12:21:31,14.99307596,0.0002749,69.9986,316.0099,269.5723,90.5121,7.9804e-05,8.83e-06,0.0,0 STARLINK-5883,1 55956U 23037AU  23287.51495264  .00000883  00000-0  79804-4 0  9994,2 55956  69.9986 316.0099 0002749 269.5723  90.5121 14.99307596 33088,6947.171,96.044,570.946,567.127,0.0
55956.0,STARLINK-5883,PAYLOAD,2023-10-15 02:46:50,14.9884392,0.0003536,69.9984,314.4948,284.3568,75.7199,-0.0047833,-0.00057463,0.0,0 STARLINK-5883,1 55956U 23037AU  23288.11586364 -.00057463  00000-0 -47833-2 0  9996,2 55956  69.9984 314.4948 0003536 284.3568  75.7199 14.98843920 33511,6948.604,96.074,572.926,568.012,0.0
55956.0,STARLINK-5883,PAYLOAD,2023-10-15 12:23:33,14.98751508,0.0002853,69.9989,313.483,285.7819,74.3026,-0.0053567,-0.00064123,0.0,0 STARLINK-5883,1 55956U 23037AU  23288.51636047 -.00064123  00000-0 -53567-2 0  9996,2 55956  69.9989 313.4830 0002853 285.7819  74.3026 14.98751508 33570,6948.89,96.08,572.737,568.772,0.0
55956.0,STARLINK-5883,PAYLOAD,2023-10-15 18:48:00,14.98719211,0.0002817,69.9986,312.811,279.6726,80.4115,-0.0052472,-0.00062773,0.0,0 STARLINK-5883,1 55956U 23037AU  23288.78333846 -.00062773  00000-0 -52472-2 0  9999,2 55956  69.9986 312.8110 0002817 279.6726  80.4115 14.98719211 33617,6948.99,96.082,572.812,568.897,0.0
55956.0,STARLINK-5883,PAYLOAD,2023-10-16 10:49:09,14.98658819,0.000287,69.9983,311.1278,270.0925,89.9905,-0.0048583,-0.00058076,0.0,0 STARLINK-5883,1 55956U 23037AU  23289.45079902 -.00058076  00000-0 -48583-2 0  9993,2 55956  69.9983 311.1278 0002870 270.0925  89.9905 14.98658819 33376,6949.176,96.086,573.036,569.047,0.0
55956.0,STARLINK-5883,PAYLOAD,2023-10-16 17:13:37,14.98634274,0.0002988,69.9984,310.4543,273.4512,86.6305,-0.0046973,-0.00056134,0.0,0 STARLINK-5883,1 55956U 23037AU  23289.71779494 -.00056134  00000-0 -46973-2 0  9999,2 55956  69.9984 310.4543 0002988 273.4512  86.6305 14.98634274 33752,6949.252,96.087,573.194,569.041,0.0
55956.0,STARLINK-5883,PAYLOAD,2023-10-17 10:51:05,14.98357005,0.0002918,69.9984,308.603,279.8582,80.2247,-0.00040061,-4.873e-05,0.0,0 STARLINK-5883,1 55956U 23037AU  23290.45214765 -.00004873  00000-0 -40061-3 0  9993,2 55956  69.9984 308.6030 0002918 279.8582  80.2247 14.98357005 33863,6950.109,96.105,574.002,569.946,0.0
55956.0,STARLINK-5883,PAYLOAD,2023-10-18 06:00:00,14.98349794,0.0003014,70.0003,306.5904,274.8267,67.6501,-0.0031766,-0.00037811,0.0,0 STARLINK-5883,1 55956U 23037AU  23291.25001157 -.00037811  00000-0 -31766-2 0  9990,2 55956  70.0003 306.5904 0003014 274.8267  67.6501 14.98349794  5922,6950.132,96.106,574.091,569.902,0.0
55956.0,STARLINK-5883,PAYLOAD,2023-10-18 14:00:01,14.98336816,0.0003032,70.0,305.7497,278.1817,61.7821,-0.0014649,-0.00017531,0.0,0 STARLINK-5883,1 55956U 23037AU  23291.58334491 -.00017531  00000-0 -14649-2 0  9994,2 55956  70.0000 305.7497 0003032 278.1817  61.7821 14.98336816 34030,6950.172,96.107,574.144,569.93,0.0
55956.0,STARLINK-5883,PAYLOAD,2023-10-18 22:00:00,14.98293073,0.0003,70.0004,304.9091,271.2396,66.2187,0.0066861,0.00080531,0.0,0 STARLINK-5883,1 55956U 23037AU  23291.91667824  .00080531  00000-0  66861-2 0  9991,2 55956  70.0004 304.9091 0003000 271.2396  66.2187 14.98293073  5856,6950.307,96.109,574.257,570.087,0.0
55956.0,STARLINK-5883,PAYLOAD,2023-10-19 04:30:35,14.98328875,0.0002898,69.9983,304.2261,276.1617,83.9212,2.6992e-05,2.29e-06,0.0,0 STARLINK-5883,1 55956U 23037AU  23292.18791445  .00000229  00000-0  26992-4 0  9997,2 55956  69.9983 304.2261 0002898 276.1617  83.9212 14.98328875 34121,6950.196,96.107,574.076,570.047,0.0
55956.0,STARLINK-5883,PAYLOAD,2023-10-19 10:55:07,14.98334006,0.0002966,69.9988,303.5534,273.4629,86.619,4.2567e-05,4.15e-06,0.0,0 STARLINK-5883,1 55956U 23037AU  23292.45494988  .00000415  00000-0  42567-4 0  9992,2 55956  69.9988 303.5534 0002966 273.4629  86.6190 14.98334006 33824,6950.181,96.107,574.107,569.984,0.0
55956.0,STARLINK-5883,PAYLOAD,2023-10-20 04:32:36,14.98327292,0.0002704,69.9991,301.7009,276.9103,83.1749,5.628e-06,-2.6e-07,0.0,0 STARLINK-5883,1 55956U 23037AU  23293.18931586 -.00000026  00000-0  56280-5 0  9990,2 55956  69.9991 301.7009 0002704 276.9103  83.1749 14.98327292 34271,6950.201,96.107,573.946,570.187,0.0
55956.0,STARLINK-5883,PAYLOAD,2023-10-20 10:57:09,14.98323497,0.0002487,69.9994,301.0282,269.5041,90.5833,4.0332e-05,3.88e-06,0.0,0 STARLINK-5883,1 55956U 23037AU  23293.45635751  .00000388  00000-0  40332-4 0  9995,2 55956  69.9994 301.0282 0002487 269.5041  90.5833 14.98323497 33972,6950.213,96.107,573.807,570.349,0.0
55956.0,STARLINK-5883,PAYLOAD,2023-10-21 09:23:02,14.9832385,0.0001937,70.001,298.6731,250.6293,109.4657,-5.8858e-05,-7.95e-06,0.0,0 STARLINK-5883,1 55956U 23037AU  23294.39100075 -.00000795  00000-0 -58858-4 0  9991,2 55956  70.0010 298.6731 0001937 250.6293 109.4657 14.98323850 34454,6950.212,96.107,573.423,570.731,0.0
55956.0,STARLINK-5883,PAYLOAD,2023-10-22 04:36:38,14.98332487,0.0002224,70.001,296.6551,233.3417,126.7538,6.1187e-05,6.37e-06,0.0,0 STARLINK-5883,1 55956U 23037AU  23295.19211030  .00000637  00000-0  61187-4 0  9996,2 55956  70.0010 296.6551 0002224 233.3417 126.7538 14.98332487 34577,6950.185,96.107,573.596,570.504,0.0
55956.0,STARLINK-5883,PAYLOAD,2023-10-22 09:25:02,14.98328081,0.0002382,70.0,296.1459,247.4699,112.6208,2.2155e-05,1.71e-06,0.0,0 STARLINK-5883,1 55956U 23037AU  23295.39239317  .00000171  00000-0  22155-4 0  9991,2 55956  70.0000 296.1459 0002382 247.4699 112.6208 14.98328081 34260,6950.199,96.107,573.719,570.408,0.0
55956.0,STARLINK-5883,PAYLOAD,2023-10-22 17:25:43,14.98319645,0.000232,70.0004,295.3032,263.6412,96.4483,0.00013094,1.469e-05,0.0,0 STARLINK-5883,1 55956U 23037AU  23295.72619692  .00001469  00000-0  13094-3 0  9998,2 55956  70.0004 295.3032 0002320 263.6412  96.4483 14.98319645 34650,6950.225,96.108,573.702,570.477,0.0
55956.0,STARLINK-5883,PAYLOAD,2023-10-23 17:27:44,14.98317949,0.0002485,69.9998,292.7775,268.0256,92.0618,0.00010883,1.205e-05,0.0,0 STARLINK-5883,1 55956U 23037AU  23296.72759947  .00001205  00000-0  10883-3 0  9998,2 55956  69.9998 292.7775 0002485 268.0256  92.0618 14.98317949 34805,6950.23,96.108,573.822,570.368,0.0
55956.0,STARLINK-5883,PAYLOAD,2023-10-24 09:29:04,14.9832114,0.0002476,69.999,291.0943,259.2002,100.8878,0.00013168,1.478e-05,0.0,0 STARLINK-5883,1 55956U 23037AU  23297.39519601  .00001478  00000-0  13168-3 0  9994,2 55956  69.9990 291.0943 0002476 259.2002 100.8878 14.98321140 34902,6950.22,96.108,573.806,570.364,0.0
55956.0,STARLINK-5883,PAYLOAD,2023-10-25 09:31:06,14.98306181,0.0002467,69.9992,288.5706,264.6434,95.4443,0.00043156,5.057e-05,0.0,0 STARLINK-5883,1 55956U 23037AU  23298.39659827  .00005057  00000-0  43156-3 0  9997,2 55956  69.9992 288.5706 0002467 264.6434  95.4443 14.98306181 35053,6950.267,96.109,573.846,570.417,0.0
55956.0,STARLINK-5883,PAYLOAD,2023-10-26 04:44:42,14.98330066,0.0002637,69.9992,286.5499,269.7494,90.3363,-2.1254e-05,-3.47e-06,0.0,0 STARLINK-5883,1 55956U 23037AU  23299.19771461 -.00000347  00000-0 -21254-4 0  9990,2 55956  69.9992 286.5499 0002637 269.7494  90.3363 14.98330066 35178,6950.193,96.107,573.89,570.225,0.0
55956.0,STARLINK-5883,PAYLOAD,2023-10-26 09:33:06,14.98327294,0.0002607,69.9992,286.0454,266.4902,93.5959,6.8465e-05,7.24e-06,0.0,0 STARLINK-5883,1 55956U 23037AU  23299.39799380  .00000724  00000-0  68465-4 0  9994,2 55956  69.9992 286.0454 0002607 266.4902  93.5959 14.98327294 34869,6950.201,96.107,573.878,570.254,0.0
55956.0,STARLINK-5883,PAYLOAD,2023-10-26 15:57:38,14.98353738,0.0002769,69.9993,285.3721,272.2205,87.8637,-0.00036849,-4.49e-05,0.0,0 STARLINK-5883,1 55956U 23037AU  23299.66502618 -.00004490  00000-0 -36849-3 0  9996,2 55956  69.9993 285.3721 0002769 272.2205  87.8637 14.98353738 34905,6950.119,96.105,573.909,570.06,0.0
55956.0,STARLINK-5883,PAYLOAD,2023-10-27 04:46:42,14.98341893,0.0002339,69.9993,284.026,274.0407,86.0485,-7.0649e-05,-9.36e-06,0.0,0 STARLINK-5883,1 55956U 23037AU  23300.19910734 -.00000936  00000-0 -70649-4 0  9997,2 55956  69.9993 284.0260 0002339 274.0407  86.0485 14.98341893 35324,6950.156,96.106,573.647,570.395,0.0
55956.0,STARLINK-5883,PAYLOAD,2023-10-27 09:35:06,14.98364467,0.0002161,69.9996,283.5216,261.4431,98.6483,-0.00041498,-5.045e-05,0.0,0 STARLINK-5883,1 55956U 23037AU  23300.39937905 -.00005045  00000-0 -41498-3 0  9993,2 55956  69.9996 283.5216 0002161 261.4431  98.6483 14.98364467 35354,6950.086,96.105,573.453,570.449,0.0
